NUSAT-1 (FRESCO)        
1 41557U 16033B   22131.53297188  .00012021  00000+0  37039-3 0  9997
2 41557  97.3848 229.1972 0012572 145.6303 313.8689 15.33689004331727
BEESAT-4                
1 41619U 16040W   22131.37420037  .00010573  00000+0  36627-3 0  9999
2 41619  97.2207 183.0142 0008368 239.9801 120.0610 15.29986530315058
CAS-2T & KS-1Q          
1 41847U 16066G   22131.40942876  .00000362  00000+0  65192-4 0  9999
2 41847  98.5530 196.1113 0363271 320.8371  36.7029 14.38534163289020
NAYIF-1 (EO-88)         
1 42017U 17008BX  22131.44924820  .00012839  00000+0  40052-3 0  9998
2 42017  97.2713 198.1265 0005239  38.3549 321.8065 15.33338583291401
ZHUHAI-1 02 (CAS-4B)    
1 42759U 17034B   22131.58480995  .00003234  00000+0  19988-3 0  9998
2 42759  43.0161 175.8782 0007710  49.3595  81.1916 15.11617005270778
ZHUHAI-1 01 (CAS-4A)    
1 42761U 17034D   22131.62492979  .00002947  00000+0  18285-3 0  9990
2 42761  43.0169 174.4707 0008341  51.6686  90.3303 15.11706791270783
MAX VALIER SAT          
1 42778U 17036P   22131.55366589  .00006938  00000+0  26947-3 0  9997
2 42778  97.2097 173.9309 0013157  98.3343 261.9388 15.26297436271274
RADFXSAT (FOX-1B)       
1 43017U 17073E   22131.42157286  .00003074  00000+0  23682-3 0  9994
2 43017  97.6792  27.1226 0248320 309.3771  48.5679 14.81148628241634
FOX-1D (AO-92)          
1 43137U 18004AC  22131.44758568  .00007924  00000+0  28723-3 0  9993
2 43137  97.3698 206.9542 0009334 129.4464 230.7603 15.28589308240690
DIWATA-2B               
1 43678U 18084H   22131.56704315  .00000493  00000+0  54296-4 0  9994
2 43678  97.9638 264.4134 0011023  51.8653 308.3543 14.92094785192356
ES'HAIL 2               
1 43700U 18090A   22131.48511870  .00000153  00000+0  00000+0 0  9992
2 43700   0.0510  87.6391 0002420 349.7287 352.3140  1.00271404 12903
FOX-1CLIFF (AO-95)      
1 43770U 18099N   22131.41006805  .00002512  00000+0  22718-3 0  9993
2 43770  97.6233 198.7222 0015316  46.0933 314.1550 14.96229746187471
ITASAT 1                
1 43786U 18099AE  22131.47414864  .00002252  00000+0  20326-3 0  9998
2 43786  97.6256 199.6823 0015718  38.4956 321.7383 14.96403406187527
JY1SAT (JO-97)          
1 43803U 18099AX  22131.43674536  .00001783  00000+0  16020-3 0  9992
2 43803  97.6210 199.3928 0015339  36.2467 323.9791 14.96845872187537
UWE-4                   
1 43880U 18111E   22131.52981480  .00002258  00000+0  19633-3 0  9992
2 43880  97.6700  38.4862 0013135  85.1393 275.1329 14.97904357184176
NEXUS (FO-99)           
1 43937U 19003F   22131.09215287  .00010359  00000+0  36033-3 0  9997
2 43937  97.1346 165.9139 0018858 287.8589  72.0595 15.29719586184261
PSAT2 (NO-104)          
1 44354U 19036R   22131.52613031  .00045506 -60079-5  43795-3 0  9998
2 44354  28.5281  73.4140 0248265 275.9865  81.2494 15.34514793158998
JAISAT-1                
1 44419U 19038F   22131.43353601  .00005864  00000+0  30183-3 0  9997
2 44419  97.6332 101.2816 0017289 258.5436 101.3855 15.16690671157449
DUCHIFAT-3              
1 44854U 19089C   22131.51914651  .00003363  00000+0  26576-3 0  9996
2 44854  36.9677 319.2673 0009523 287.1521  72.8177 15.00790748132381
CAS-6 (TO-108)          
1 44881U 19093C   22131.50404783  .00000517  00000+0  72358-4 0  9998
2 44881  97.8921 211.2420 0013911 310.3143  49.6849 14.81677157129307
RS-44 & BREEZE-KM R/B   
1 44909U 19096E   22131.44587459 -.00000002  00000+0 -57321-4 0  9991
2 44909  82.5212 254.8566 0218026  46.4978 315.4017 12.79713184110771
ORBITAL FACTORY 2 (OF-2)
1 45113U 19071C   22131.48824814  .00020291  00000+0  45237-3 0  9997
2 45113  51.6371 241.0036 0010143  32.2798 327.8807 15.43511290127663
HUSKYSAT-1 (HO-107)     
1 45119U 19071J   22131.47449683  .00017721  00000+0  40581-3 0  9990
2 45119  51.6385 240.8917 0009905  29.7134 330.4413 15.42811011127653
BY70-2                  
1 45857U 20042B   22131.56858997  .00006186  00000+0  83853-3 0  9993
2 45857  97.9544 208.7744 0009916 225.6765 134.3632 14.79241126100009
SALSAT                  
1 46495U 20068K   22131.38209614  .00002632  00000+0  19283-3 0  9994
2 46495  97.7272  72.6804 0017649  46.7065 313.5630 15.04314391 88611
BY70-3                  
1 46839U 20079N   22131.63056267  .00018818  00000+0  46830-3 0  9991
2 46839  97.1996 204.2442 0007472 110.8800 353.2282 15.40285366 84578
RADFXSAT-2 (AO-109)     
1 47311U 21002C   22131.55552376  .00006361  00000+0  26642-3 0  9996
2 47311  60.6848 141.0820 0011229 289.7793  70.2084 15.24610472 72839
UVSQ-SAT                
1 47438U 21006AB  22131.43667337  .00005149  00000+0  27712-3 0  9993
2 47438  97.4402 191.2126 0013010  50.4948 309.7433 15.15201955 71675
DIY-1 (ARDUIQUBE)       
1 47963U 21022AH  22131.24218485  .00011211  00000+0  65045-3 0  9997
2 47963  97.5361  33.0593 0014768 260.0625  99.8939 15.12229111 61326
XW-3 (CAS-9)            
1 50466U 21131B   22131.51544037  .00000124  00000+0  55100-4 0  9998
2 50466  98.5808 208.7856 0003394 250.1185 109.9636 14.38480633 19608
